GLOBALSTAR M023         
1 25621U 99004A   25334.84328932 -.00000106  00000+0 -13241-4 0  9997
2 25621  52.0112 265.9664 0010219 131.9247 262.9487 12.62509701236784
GLOBALSTAR M040         
1 25622U 99004B   25334.59634622 -.00000084  00000+0  11110-3 0  9992
2 25622  51.9925 271.1183 0001507  43.4478 127.7305 12.62023822236268
GLOBALSTAR M036         
1 25623U 99004C   25334.81790181 -.00000042  00000+0  58710-3 0  9992
2 25623  51.9931 161.1115 0010875  15.3413 357.8712 11.86618062198765
GLOBALSTAR M038         
1 25624U 99004D   25334.44722069 -.00000071  00000+0  19920-3 0  9994
2 25624  51.9990 312.7579 0002172  40.3583 129.0806 12.32536559222871
GLOBALSTAR M022         
1 25649U 99012A   25334.64495965 -.00000083  00000+0  52551-4 0  9995
2 25649  52.0014 198.3913 0003290 123.1104 273.5358 12.02507381196402
GLOBALSTAR M041         
1 25650U 99012B   25334.68668176 -.00000085  00000+0  49209-5 0  9996
2 25650  52.0023  84.8021 0000439 278.4445  81.6342 11.96681183198214
GLOBALSTAR M046         
1 25651U 99012C   25334.78413839  .00000027  00000+0  12751-2 0  9996
2 25651  52.0029 142.0641 0001534 190.0416 183.7529 12.09418133203823
GLOBALSTAR M037         
1 25652U 99012D   25334.42864412 -.00000064  00000+0  21913-3 0  9998
2 25652  52.0021  37.7848 0002229 182.8617 190.3258 12.62456977232270
